[{"OBJECT_NAME":"TJS-12","OBJECT_ID":"2024-246A","EPOCH":"2026-03-06T19:47:51.645984","MEAN_MOTION":1.00274792,"ECCENTRICITY":0.0002256,"INCLINATION":0.9048,"RA_OF_ASC_NODE":291.7815,"ARG_OF_PERICENTER":29.3036,"MEAN_ANOMALY":286.9055,"EPHEMERIS_TYPE":0,"CLASSIFICATION_TYPE":"U","NORAD_CAT_ID":62374,"ELEMENT_SET_NO":999,"REV_AT_EPOCH":453,"BSTAR":0,"MEAN_MOTION_DOT":-2.35e-6,"MEAN_MOTION_DDOT":0},{"OBJECT_NAME":"NUVIEW ALPHA","OBJECT_ID":"2024-252B","EPOCH":"2026-03-06T11:51:02.281824","MEAN_MOTION":1.0027348,"ECCENTRICITY":0.00026548,"INCLINATION":0.0539,"RA_OF_ASC_NODE":13.7149,"ARG_OF_PERICENTER":348.2205,"MEAN_ANOMALY":256.9295,"EPHEMERIS_TYPE":0,"CLASSIFICATION_TYPE":"U","NORAD_CAT_ID":62455,"ELEMENT_SET_NO":999,"REV_AT_EPOCH":279,"BSTAR":0,"MEAN_MOTION_DOT":-2.2e-6,"MEAN_MOTION_DDOT":0},{"OBJECT_NAME":"AGILA","OBJECT_ID":"2024-252C","EPOCH":"2026-03-06T18:13:26.703840","MEAN_MOTION":1.00272717,"ECCENTRICITY":0.0001396,"INCLINATION":0.0245,"RA_OF_ASC_NODE":155.8557,"ARG_OF_PERICENTER":200.3281,"MEAN_ANOMALY":233.7892,"EPHEMERIS_TYPE":0,"CLASSIFICATION_TYPE":"U","NORAD_CAT_ID":62456,"ELEMENT_SET_NO":999,"REV_AT_EPOCH":413,"BSTAR":0,"MEAN_MOTION_DOT":-1.85e-6,"MEAN_MOTION_DDOT":0},{"OBJECT_NAME":"NUVIEW BRAVO","OBJECT_ID":"2024-252D","EPOCH":"2026-03-06T11:51:02.281824","MEAN_MOTION":1.00272985,"ECCENTRICITY":5.378e-5,"INCLINATION":0.0662,"RA_OF_ASC_NODE":164.9202,"ARG_OF_PERICENTER":216.768,"MEAN_ANOMALY":237.1474,"EPHEMERIS_TYPE":0,"CLASSIFICATION_TYPE":"U","NORAD_CAT_ID":62457,"ELEMENT_SET_NO":999,"REV_AT_EPOCH":276,"BSTAR":0,"MEAN_MOTION_DOT":-2.19e-6,"MEAN_MOTION_DDOT":0},{"OBJECT_NAME":"THURAYA-4","OBJECT_ID":"2025-001A","EPOCH":"2026-03-06T19:18:11.239200","MEAN_MOTION":1.00273479,"ECCENTRICITY":1.27e-5,"INCLINATION":0.0218,"RA_OF_ASC_NODE":100.7813,"ARG_OF_PERICENTER":304.999,"MEAN_ANOMALY":92.5847,"EPHEMERIS_TYPE":0,"CLASSIFICATION_TYPE":"U","NORAD_CAT_ID":62483,"ELEMENT_SET_NO":999,"REV_AT_EPOCH":315,"BSTAR":0,"MEAN_MOTION_DOT":1.36e-6,"MEAN_MOTION_DDOT":0},{"OBJECT_NAME":"TJS-14","OBJECT_ID":"2025-017A","EPOCH":"2026-03-06T19:10:49.444896","MEAN_MOTION":1.0027137,"ECCENTRICITY":0.0002301,"INCLINATION":1.0221,"RA_OF_ASC_NODE":290.1153,"ARG_OF_PERICENTER":55.9539,"MEAN_ANOMALY":124.4855,"EPHEMERIS_TYPE":0,"CLASSIFICATION_TYPE":"U","NORAD_CAT_ID":62804,"ELEMENT_SET_NO":999,"REV_AT_EPOCH":424,"BSTAR":0,"MEAN_MOTION_DOT":1.11e-6,"MEAN_MOTION_DDOT":0},{"OBJECT_NAME":"SPAINSAT NG I","OBJECT_ID":"2025-021A","EPOCH":"2026-03-05T12:25:28.222464","MEAN_MOTION":1.00273088,"ECCENTRICITY":1.34e-5,"INCLINATION":0.019,"RA_OF_ASC_NODE":144.4688,"ARG_OF_PERICENTER":265.8191,"MEAN_ANOMALY":328.2672,"EPHEMERIS_TYPE":0,"CLASSIFICATION_TYPE":"U","NORAD_CAT_ID":62852,"ELEMENT_SET_NO":999,"REV_AT_EPOCH":294,"BSTAR":0,"MEAN_MOTION_DOT":1.44e-6,"MEAN_MOTION_DDOT":0},{"OBJECT_NAME":"QZS-6 (MICHIBIKI-6)","OBJECT_ID":"2025-023A","EPOCH":"2026-03-06T19:31:24.969216","MEAN_MOTION":1.00269676,"ECCENTRICITY":0.0001829,"INCLINATION":0.0338,"RA_OF_ASC_NODE":296.0742,"ARG_OF_PERICENTER":48.7188,"MEAN_ANOMALY":203.0676,"EPHEMERIS_TYPE":0,"CLASSIFICATION_TYPE":"U","NORAD_CAT_ID":62876,"ELEMENT_SET_NO":999,"REV_AT_EPOCH":393,"BSTAR":0,"MEAN_MOTION_DOT":-2.36e-6,"MEAN_MOTION_DDOT":0},{"OBJECT_NAME":"ZHONGXING-10R","OBJECT_ID":"2025-036A","EPOCH":"2026-03-06T19:37:01.930944","MEAN_MOTION":1.00276063,"ECCENTRICITY":0.0001217,"INCLINATION":0.0912,"RA_OF_ASC_NODE":261.3606,"ARG_OF_PERICENTER":308.3469,"MEAN_ANOMALY":359.5687,"EPHEMERIS_TYPE":0,"CLASSIFICATION_TYPE":"U","NORAD_CAT_ID":63075,"ELEMENT_SET_NO":999,"REV_AT_EPOCH":393,"BSTAR":0,"MEAN_MOTION_DOT":-3.56e-6,"MEAN_MOTION_DDOT":0},{"OBJECT_NAME":"TJS-15","OBJECT_ID":"2025-045A","EPOCH":"2026-03-06T15:32:54.075840","MEAN_MOTION":1.0027559,"ECCENTRICITY":0.0006977,"INCLINATION":0.2184,"RA_OF_ASC_NODE":87.7717,"ARG_OF_PERICENTER":267.5685,"MEAN_ANOMALY":136.5872,"EPHEMERIS_TYPE":0,"CLASSIFICATION_TYPE":"U","NORAD_CAT_ID":63157,"ELEMENT_SET_NO":999,"REV_AT_EPOCH":373,"BSTAR":0,"MEAN_MOTION_DOT":-2.69e-6,"MEAN_MOTION_DDOT":0},{"OBJECT_NAME":"TIANLIAN 2-04","OBJECT_ID":"2025-062A","EPOCH":"2026-03-06T16:55:51.521952","MEAN_MOTION":1.00271832,"ECCENTRICITY":0.0034857,"INCLINATION":4.6378,"RA_OF_ASC_NODE":275.8379,"ARG_OF_PERICENTER":9.6276,"MEAN_ANOMALY":212.9525,"EPHEMERIS_TYPE":0,"CLASSIFICATION_TYPE":"U","NORAD_CAT_ID":63361,"ELEMENT_SET_NO":999,"REV_AT_EPOCH":357,"BSTAR":0,"MEAN_MOTION_DOT":-1.42e-6,"MEAN_MOTION_DDOT":0},{"OBJECT_NAME":"TJS-16","OBJECT_ID":"2025-064A","EPOCH":"2026-03-06T16:25:57.751680","MEAN_MOTION":1.00272587,"ECCENTRICITY":0.0005206,"INCLINATION":0.8336,"RA_OF_ASC_NODE":81.9429,"ARG_OF_PERICENTER":259.7918,"MEAN_ANOMALY":229.7299,"EPHEMERIS_TYPE":0,"CLASSIFICATION_TYPE":"U","NORAD_CAT_ID":63397,"ELEMENT_SET_NO":999,"REV_AT_EPOCH":336,"BSTAR":0,"MEAN_MOTION_DOT":-1.09e-6,"MEAN_MOTION_DDOT":0},{"OBJECT_NAME":"TJS-17","OBJECT_ID":"2025-073A","EPOCH":"2026-03-06T20:06:21.708864","MEAN_MOTION":1.002722,"ECCENTRICITY":0.0004447,"INCLINATION":0.7994,"RA_OF_ASC_NODE":83.531,"ARG_OF_PERICENTER":251.2849,"MEAN_ANOMALY":295.8067,"EPHEMERIS_TYPE":0,"CLASSIFICATION_TYPE":"U","NORAD_CAT_ID":63524,"ELEMENT_SET_NO":999,"REV_AT_EPOCH":326,"BSTAR":0,"MEAN_MOTION_DOT":-7.3e-7,"MEAN_MOTION_DDOT":0},{"OBJECT_NAME":"TIANLIAN 2-05","OBJECT_ID":"2025-084A","EPOCH":"2026-03-06T20:54:00.188928","MEAN_MOTION":1.00273907,"ECCENTRICITY":0.0003221,"INCLINATION":4.7104,"RA_OF_ASC_NODE":280.9458,"ARG_OF_PERICENTER":83.8712,"MEAN_ANOMALY":133.6445,"EPHEMERIS_TYPE":0,"CLASSIFICATION_TYPE":"U","NORAD_CAT_ID":63662,"ELEMENT_SET_NO":999,"REV_AT_EPOCH":335,"BSTAR":0,"MEAN_MOTION_DOT":1.18e-6,"MEAN_MOTION_DDOT":0},{"OBJECT_NAME":"TJS-19","OBJECT_ID":"2025-097A","EPOCH":"2026-03-06T19:45:46.094688","MEAN_MOTION":1.00276015,"ECCENTRICITY":0.0003485,"INCLINATION":3.4613,"RA_OF_ASC_NODE":315.8413,"ARG_OF_PERICENTER":337.3313,"MEAN_ANOMALY":308.9893,"EPHEMERIS_TYPE":0,"CLASSIFICATION_TYPE":"U","NORAD_CAT_ID":63924,"ELEMENT_SET_NO":999,"REV_AT_EPOCH":311,"BSTAR":0,"MEAN_MOTION_DOT":-2.8e-6,"MEAN_MOTION_DDOT":0},{"OBJECT_NAME":"CHINASAT 3B","OBJECT_ID":"2025-106A","EPOCH":"2026-03-05T21:38:19.057344","MEAN_MOTION":1.00268665,"ECCENTRICITY":0.00017739,"INCLINATION":0.0213,"RA_OF_ASC_NODE":135.9648,"ARG_OF_PERICENTER":194.0821,"MEAN_ANOMALY":325.4661,"EPHEMERIS_TYPE":0,"CLASSIFICATION_TYPE":"U","NORAD_CAT_ID":64062,"ELEMENT_SET_NO":999,"REV_AT_EPOCH":302,"BSTAR":0,"MEAN_MOTION_DOT":0,"MEAN_MOTION_DDOT":0},{"OBJECT_NAME":"SXM-10","OBJECT_ID":"2025-122A","EPOCH":"2026-03-05T03:49:38.659872","MEAN_MOTION":1.00270923,"ECCENTRICITY":0.00028481,"INCLINATION":0.0247,"RA_OF_ASC_NODE":67.2363,"ARG_OF_PERICENTER":299.6621,"MEAN_ANOMALY":97.2175,"EPHEMERIS_TYPE":0,"CLASSIFICATION_TYPE":"U","NORAD_CAT_ID":64290,"ELEMENT_SET_NO":999,"REV_AT_EPOCH":264,"BSTAR":0,"MEAN_MOTION_DOT":-2.5e-7,"MEAN_MOTION_DDOT":0},{"OBJECT_NAME":"CHINASAT 9C","OBJECT_ID":"2025-132A","EPOCH":"2026-03-06T20:53:38.702976","MEAN_MOTION":1.00271613,"ECCENTRICITY":0.0002561,"INCLINATION":0.0276,"RA_OF_ASC_NODE":109.3285,"ARG_OF_PERICENTER":227.1543,"MEAN_ANOMALY":233.7116,"EPHEMERIS_TYPE":0,"CLASSIFICATION_TYPE":"U","NORAD_CAT_ID":64470,"ELEMENT_SET_NO":999,"REV_AT_EPOCH":312,"BSTAR":0,"MEAN_MOTION_DOT":-2.5e-6,"MEAN_MOTION_DDOT":0},{"OBJECT_NAME":"MTG-S1","OBJECT_ID":"2025-143A","EPOCH":"2026-03-06T13:56:27.089376","MEAN_MOTION":1.00270254,"ECCENTRICITY":0.000249,"INCLINATION":0.653,"RA_OF_ASC_NODE":326.7106,"ARG_OF_PERICENTER":348.9973,"MEAN_ANOMALY":54.2269,"EPHEMERIS_TYPE":0,"CLASSIFICATION_TYPE":"U","NORAD_CAT_ID":64723,"ELEMENT_SET_NO":999,"REV_AT_EPOCH":239,"BSTAR":0,"MEAN_MOTION_DOT":-3.6e-7,"MEAN_MOTION_DDOT":0},{"OBJECT_NAME":"DROR 1","OBJECT_ID":"2025-148A","EPOCH":"2026-03-06T08:48:12.313152","MEAN_MOTION":1.00272533,"ECCENTRICITY":0.00035287,"INCLINATION":0.0332,"RA_OF_ASC_NODE":86.1757,"ARG_OF_PERICENTER":262.7371,"MEAN_ANOMALY":303.2105,"EPHEMERIS_TYPE":0,"CLASSIFICATION_TYPE":"U","NORAD_CAT_ID":64784,"ELEMENT_SET_NO":999,"REV_AT_EPOCH":226,"BSTAR":0,"MEAN_MOTION_DOT":-3.9e-7,"MEAN_MOTION_DDOT":0},{"OBJECT_NAME":"SHIYAN-29","OBJECT_ID":"2025-196A","EPOCH":"2026-03-06T13:49:51.497472","MEAN_MOTION":1.00288481,"ECCENTRICITY":0.0009947,"INCLINATION":28.7135,"RA_OF_ASC_NODE":19.8264,"ARG_OF_PERICENTER":182.5072,"MEAN_ANOMALY":263.9271,"EPHEMERIS_TYPE":0,"CLASSIFICATION_TYPE":"U","NORAD_CAT_ID":65486,"ELEMENT_SET_NO":999,"REV_AT_EPOCH":185,"BSTAR":0,"MEAN_MOTION_DOT":-2.71e-6,"MEAN_MOTION_DDOT":0},{"OBJECT_NAME":"NUSANTARA LIMA (NUSANTARA 5)","OBJECT_ID":"2025-205A","EPOCH":"2026-03-06T19:37:46.858944","MEAN_MOTION":1.00271949,"ECCENTRICITY":9.47e-5,"INCLINATION":0.0808,"RA_OF_ASC_NODE":57.2416,"ARG_OF_PERICENTER":2.0665,"MEAN_ANOMALY":152.4989,"EPHEMERIS_TYPE":0,"CLASSIFICATION_TYPE":"U","NORAD_CAT_ID":65588,"ELEMENT_SET_NO":999,"REV_AT_EPOCH":169,"BSTAR":0,"MEAN_MOTION_DOT":-3.61e-6,"MEAN_MOTION_DDOT":0},{"OBJECT_NAME":"TJS-20","OBJECT_ID":"2025-238A","EPOCH":"2026-03-06T19:23:18.247776","MEAN_MOTION":1.00270571,"ECCENTRICITY":0.0007713,"INCLINATION":5.6973,"RA_OF_ASC_NODE":299.933,"ARG_OF_PERICENTER":91.5715,"MEAN_ANOMALY":126.2249,"EPHEMERIS_TYPE":0,"CLASSIFICATION_TYPE":"U","NORAD_CAT_ID":66142,"ELEMENT_SET_NO":999,"REV_AT_EPOCH":130,"BSTAR":0,"MEAN_MOTION_DOT":2.0e-7,"MEAN_MOTION_DDOT":0},{"OBJECT_NAME":"CMS-03 (GSAT-7R)","OBJECT_ID":"2025-249B","EPOCH":"2026-03-06T19:28:02.792352","MEAN_MOTION":0.99987749,"ECCENTRICITY":0.0001593,"INCLINATION":0.0567,"RA_OF_ASC_NODE":271.2215,"ARG_OF_PERICENTER":212.8706,"MEAN_ANOMALY":51.1426,"EPHEMERIS_TYPE":0,"CLASSIFICATION_TYPE":"U","NORAD_CAT_ID":66311,"ELEMENT_SET_NO":999,"REV_AT_EPOCH":132,"BSTAR":0,"MEAN_MOTION_DOT":-6.3e-7,"MEAN_MOTION_DDOT":0}]
